[{"OBJECT_NAME":"UHETSAT","OBJECT_ID":"2023-185E","EPOCH":"2026-03-09T22:39:26.455680","MEAN_MOTION":15.29797662,"ECCENTRICITY":0.00118435,"INCLINATION":97.3584,"RA_OF_ASC_NODE":137.3576,"ARG_OF_PERICENTER":307.7346,"MEAN_ANOMALY":52.2821,"EPHEMERIS_TYPE":0,"CLASSIFICATION_TYPE":"U","NORAD_CAT_ID":58466,"ELEMENT_SET_NO":999,"REV_AT_EPOCH":12611,"BSTAR":0.00030513019,"MEAN_MOTION_DOT":8.749e-5,"MEAN_MOTION_DDOT":0},{"OBJECT_NAME":"STARLINK-31531","OBJECT_ID":"2024-068Y","EPOCH":"2026-03-09T03:12:42.929280","MEAN_MOTION":15.27570634,"ECCENTRICITY":0.00018776,"INCLINATION":43.0024,"RA_OF_ASC_NODE":342.5063,"ARG_OF_PERICENTER":271.296,"MEAN_ANOMALY":88.7677,"EPHEMERIS_TYPE":0,"CLASSIFICATION_TYPE":"U","NORAD_CAT_ID":59477,"ELEMENT_SET_NO":999,"REV_AT_EPOCH":10906,"BSTAR":-8.0016775e-5,"MEAN_MOTION_DOT":-2.463e-5,"MEAN_MOTION_DDOT":0}]
